OBJECT_NAME,OBJECT_ID,EPOCH,MEAN_MOTION,ECCENTRICITY,INCLINATION,RA_OF_ASC_NODE,ARG_OF_PERICENTER,MEAN_ANOMALY,EPHEMERIS_TYPE,CLASSIFICATION_TYPE,NORAD_CAT_ID,ELEMENT_SET_NO,REV_AT_EPOCH,BSTAR,MEAN_MOTION_DOT,MEAN_MOTION_DDOT
OCEANSAT-2,2009-051A,2026-06-09T04:38:07.365120,13.99664241,.001468,98.2324,147.8420,260.5091,99.4416,0,U,35931,999,87821,.81152E-4,.81E-6,0
WORLDVIEW-2 (WV-2),2009-055A,2026-06-09T03:52:24.579840,14.37897036,.0003301,98.4736,233.7214,237.2035,122.8834,0,U,35946,999,87449,.44617E-4,.91E-6,0
SMOS,2009-059A,2026-06-09T03:04:21.526752,14.39768148,.0001341,98.4426,347.5812,90.0418,270.0924,0,U,36036,999,87229,.84287E-4,.221E-5,0
YAOGAN-7,2009-069A,2026-06-09T02:24:19.950624,14.78001463,.0025939,98.0083,46.0170,66.6861,293.7075,0,U,36110,999,88843,.66832E-4,.432E-5,0
TANDEM-X,2010-030A,2026-06-08T11:55:50.533824,15.19149084,.00018322,97.4452,167.3280,92.3197,267.8248,0,U,36605,999,88532,.53316429E-4,.1053E-4,0
CARTOSAT-2B,2010-035A,2026-06-09T03:38:18.856896,14.78650426,.0010538,97.9955,210.7524,211.2021,148.8565,0,U,36795,999,85866,.59513E-4,.384E-5,0
YAOGAN-10,2010-038A,2026-06-09T04:51:17.157888,14.85323736,.0001666,97.8983,183.6705,88.9165,345.0327,0,U,36834,999,85602,.1268E-3,.1036E-4,0
COSMO-SKYMED 4,2010-060A,2026-06-08T09:32:08.023776,14.82162251,.00014135,97.8890,343.1246,83.8256,276.3118,0,U,37216,999,84326,.70656283E-4,.51E-5,0
RESOURCESAT-2,2011-015A,2026-06-09T03:15:30.419136,14.21604699,.0010136,98.7644,227.6329,281.5196,78.4843,0,U,37387,999,78503,.43609E-4,.51E-6,0
HAIYANG-2A,2011-043A,2026-06-09T05:59:02.480064,13.74550065,.00063,99.3399,163.1005,106.8392,253.3449,0,U,37781,999,74556,.55143E-4,.9E-7,0
RASAT,2011-044D,2026-06-09T04:59:19.268160,14.68159232,.0019626,98.0567,251.7263,214.8433,229.5339,0,U,37791,999,79201,.88725E-4,.462E-5,0
SRMSAT,2011-058D,2026-06-09T03:43:58.154880,14.11573862,.0011941,19.9710,108.0810,115.7185,272.7432,0,U,37841,999,75668,.51544E-4,.36E-5,0
PLEIADES 1A,2011-076F,2026-06-09T05:41:47.706144,14.58566531,.0001515,98.1972,235.4465,97.7754,328.3542,0,U,38012,999,77083,.87609E-4,.362E-5,0
ZIYUAN 1-02C (ZY 1-02C),2011-079A,2026-06-09T05:16:37.293312,14.38208775,.0006007,98.4068,227.6949,343.4535,108.5796,0,U,38038,999,75806,.1547E-3,.427E-5,0
ARIRANG-3 (KOMPSAT-3),2012-025B,2026-06-09T03:54:58.165344,14.62199000,.0006341,98.1173,117.7618,129.9243,230.2517,0,U,38338,999,75017,.84423E-4,.379E-5,0
EXACTVIEW-1 (ADS-1B),2012-039C,2026-06-08T21:14:35.326176,14.24982229,.0010713,98.9767,277.0882,190.0577,170.0389,0,U,38709,999,72152,.70751E-4,.119E-5,0
SPOT 6,2012-047A,2026-06-09T04:06:54.990720,14.58558449,.0001436,98.2116,227.5738,91.8428,268.2936,0,U,38755,999,73188,.71048E-4,.284E-5,0
PLEIADES 1B,2012-068A,2026-06-09T04:34:08.177952,14.58555941,.0001585,98.1942,235.3519,93.8776,266.2604,0,U,39019,999,71968,.77248E-4,.313E-5,0
GOKTURK 2,2012-073A,2026-06-09T03:31:10.636896,14.75535009,.0001892,97.6827,357.9813,59.2679,300.8718,0,U,39030,999,72332,.72262E-4,.445E-5,0
LANDSAT 8,2013-008A,2026-06-09T04:42:43.094304,14.57113299,.0001463,98.2302,230.4263,95.9200,264.2165,0,U,39084,999,69673,.69414E-4,.267E-5,0
SARAL,2013-009A,2026-06-09T03:36:03.462048,14.32853922,.0001154,98.5558,346.8194,348.8395,11.2763,0,U,39086,999,69445,.44153E-4,.77E-6,0
GAOFEN-1,2013-018A,2026-06-09T06:28:27.434208,14.76527775,.0015806,97.9100,232.4987,293.5980,66.3570,0,U,39150,999,70707,.33697E-5,-.28E-6,0
VNREDSAT 1,2013-021B,2026-06-09T03:58:08.338656,14.64848876,.0001668,97.9081,213.8895,88.4583,271.6811,0,U,39160,999,69911,.11735E-3,.581E-5,0
ARIRANG-5 (KOMPSAT-5),2013-042A,2026-06-08T23:38:58.020000,15.04559791,.0004248,97.6218,346.8017,139.4546,220.6997,0,U,39227,999,70262,.13611E-3,.1848E-4,0
SKYSAT-A,2013-066C,2026-06-09T02:56:14.826048,15.12931553,.0020838,97.3819,209.7765,346.7375,13.3306,0,U,39418,999,68726,.13797E-3,.2379E-4,0
DUBAISAT-2,2013-066D,2026-06-09T04:27:35.363808,15.10122154,.0012712,97.4566,150.5403,64.9498,295.3050,0,U,39419,999,68518,.21343E-3,.3423E-4,0
GPM-CORE,2014-009C,2026-06-09T02:47:41.580672,15.45454614,.0012085,64.9730,335.1613,270.3555,89.6201,0,U,39574,999,69656,.13076E-3,.6055E-4,0
SENTINEL-1A,2014-016A,2026-06-09T04:58:47.900640,14.59200654,.0001429,98.1783,167.8568,81.9156,278.2206,0,U,39634,999,64885,.42857E-4,.156E-5,0
KAZEOSAT 1,2014-024A,2026-06-09T04:20:57.695712,14.42077134,.0001459,98.3202,232.8272,74.9084,285.2267,0,U,39731,999,63740,.72686E-4,.196E-5,0
ALOS-2,2014-029A,2026-06-08T13:11:42.167040,14.79472067,.00016718,97.9210,256.8376,90.6305,269.5098,0,U,39766,999,65030,.20114351E-3,.1451E-4,0
KAZEOSAT 2,2014-033A,2026-06-09T03:31:21.629568,14.85459621,.0008717,97.5416,0.1835,357.0002,3.1160,0,U,40010,999,64776,.1914E-4,.115E-5,0
