OCEANSAT-2              
1 35931U 09051A   26160.19314080  .00000081  00000+0  81152-4 0  9996
2 35931  98.2324 147.8420 0014680 260.5091  99.4416 13.99664241878213
WORLDVIEW-2 (WV-2)      
1 35946U 09055A   26160.16139560  .00000091  00000+0  44617-4 0  9997
2 35946  98.4736 233.7214 0003301 237.2035 122.8834 14.37897036874495
SMOS                    
1 36036U 09059A   26160.12802693  .00000221  00000+0  84287-4 0  9994
2 36036  98.4426 347.5812 0001341  90.0418 270.0924 14.39768148872297
YAOGAN-7                
1 36110U 09069A   26160.10023091  .00000432  00000+0  66832-4 0  9993
2 36110  98.0083  46.0170 0025939  66.6861 293.7075 14.78001463888438
TANDEM-X                
1 36605U 10030A   26159.49711266  .00001053  00000+0  53316-4 0  9993
2 36605  97.4452 167.3280 0001832  92.3197 267.8248 15.19149084885320
CARTOSAT-2B             
1 36795U 10035A   26160.15160714  .00000384  00000+0  59513-4 0  9990
2 36795  97.9955 210.7524 0010538 211.2021 148.8565 14.78650426858666
YAOGAN-10               
1 36834U 10038A   26160.20228192  .00001036  00000+0  12680-3 0  9996
2 36834  97.8983 183.6705 0001666  88.9165 345.0327 14.85323736856023
COSMO-SKYMED 4          
1 37216U 10060A   26159.39731509  .00000510  00000+0  70656-4 0  9999
2 37216  97.8890 343.1246 0001413  83.8256 276.3118 14.82162251843269
RESOURCESAT-2           
1 37387U 11015A   26160.13576874  .00000051  00000+0  43609-4 0  9993
2 37387  98.7644 227.6329 0010136 281.5196  78.4843 14.21604699785031
HAIYANG-2A              
1 37781U 11043A   26160.24933426  .00000009  00000+0  55143-4 0  9993
2 37781  99.3399 163.1005 0006300 106.8392 253.3449 13.74550065745567
RASAT                   
1 37791U 11044D   26160.20786190  .00000462  00000+0  88725-4 0  9990
2 37791  98.0567 251.7263 0019626 214.8433 229.5339 14.68159232792012
SRMSAT                  
1 37841U 11058D   26160.15553420  .00000360  00000+0  51544-4 0  9999
2 37841  19.9710 108.0810 0011941 115.7185 272.7432 14.11573862756681
PLEIADES 1A             
1 38012U 11076F   26160.23735771  .00000362  00000+0  87609-4 0  9993
2 38012  98.1972 235.4465 0001515  97.7754 328.3542 14.58566531770838
ZIYUAN 1-02C (ZY 1-02C) 
1 38038U 11079A   26160.21987608  .00000427  00000+0  15470-3 0  9998
2 38038  98.4068 227.6949 0006007 343.4535 108.5796 14.38208775758065
ARIRANG-3 (KOMPSAT-3)   
1 38338U 12025B   26160.16317321  .00000379  00000+0  84423-4 0  9997
2 38338  98.1173 117.7618 0006341 129.9243 230.2517 14.62199000750173
EXACTVIEW-1 (ADS-1B)    
1 38709U 12039C   26159.88513109  .00000119  00000+0  70751-4 0  9994
2 38709  98.9767 277.0882 0010713 190.0577 170.0389 14.24982229721528
SPOT 6                  
1 38755U 12047A   26160.17146980  .00000284  00000+0  71048-4 0  9990
2 38755  98.2116 227.5738 0001436  91.8428 268.2936 14.58558449731883
PLEIADES 1B             
1 39019U 12068A   26160.19037243  .00000313  00000+0  77248-4 0  9991
2 39019  98.1942 235.3519 0001585  93.8776 266.2604 14.58555941719688
GOKTURK 2               
1 39030U 12073A   26160.14665089  .00000445  00000+0  72262-4 0  9997
2 39030  97.6827 357.9813 0001892  59.2679 300.8718 14.75535009723323
LANDSAT 8               
1 39084U 13008A   26160.19633211  .00000267  00000+0  69414-4 0  9999
2 39084  98.2302 230.4263 0001463  95.9200 264.2165 14.57113299696738
SARAL                   
1 39086U 13009A   26160.15004007  .00000077  00000+0  44153-4 0  9995
2 39086  98.5558 346.8194 0001154 348.8395  11.2763 14.32853922694451
GAOFEN-1                
1 39150U 13018A   26160.26976197 -.00000028  00000+0  33697-5 0  9996
2 39150  97.9100 232.4987 0015806 293.5980  66.3570 14.76527775707076
VNREDSAT 1              
1 39160U 13021B   26160.16537429  .00000581  00000+0  11735-3 0  9991
2 39160  97.9081 213.8895 0001668  88.4583 271.6811 14.64848876699116
ARIRANG-5 (KOMPSAT-5)   
1 39227U 13042A   26159.98539375  .00001848  00000+0  13611-3 0  9990
2 39227  97.6218 346.8017 0004248 139.4546 220.6997 15.04559791702625
SKYSAT-A                
1 39418U 13066C   26160.12239382  .00002379  00000+0  13797-3 0  9996
2 39418  97.3819 209.7765 0020838 346.7375  13.3306 15.12931553687266
DUBAISAT-2              
1 39419U 13066D   26160.18582597  .00003423  00000+0  21343-3 0  9999
2 39419  97.4566 150.5403 0012712  64.9498 295.3050 15.10122154685180
GPM-CORE                
1 39574U 14009C   26160.11645348  .00006055  00000+0  13076-3 0  9994
2 39574  64.9730 335.1613 0012085 270.3555  89.6201 15.45454614696561
SENTINEL-1A             
1 39634U 14016A   26160.20749885  .00000156  00000+0  42857-4 0  9996
2 39634  98.1783 167.8568 0001429  81.9156 278.2206 14.59200654648854
KAZEOSAT 1              
1 39731U 14024A   26160.18122333  .00000196  00000+0  72686-4 0  9990
2 39731  98.3202 232.8272 0001459  74.9084 285.2267 14.42077134637401
ALOS-2                  
1 39766U 14029A   26159.54979360  .00001451  00000+0  20114-3 0  9994
2 39766  97.9210 256.8376 0001671  90.6305 269.5098 14.79472067650306
KAZEOSAT 2              
1 40010U 14033A   26160.14677812  .00000115  00000+0  19140-4 0  9992
2 40010  97.5416   0.1835 0008717 357.0002   3.1160 14.85459621647762
